line1,line2,validFromUtcTime
1 00000U 00000E   26001.00000000  .00000000  00000-0  27772-4 0    01,2 00000  88.9606 165.3357 0010130 270.3535  37.0067 13.55280438    01,2026-01-01T00:00:00Z
1 00000U 00000E   26002.00000000  .00000000  00000-0  27772-4 0    02,2 00000  88.9606 165.2299 0010130 267.4429 236.0148 13.55280476    07,2026-01-02T00:00:00Z
